NORAD_CAT_ID,OBJECT_NAME,OBJECT_TYPE,EPOCH,MEAN_MOTION,ECCENTRICITY,INCLINATION,RA_OF_ASC_NODE,ARG_OF_PERICENTER,MEAN_ANOMALY,BSTAR,MEAN_MOTION_DOT,MEAN_MOTION_DDOT,TLE_LINE0,TLE_LINE1,TLE_LINE2,SEMIMAJOR_AXIS,PERIOD,APOGEE,PERIGEE,DECAYED
52269.0,STARLINK-3791,PAYLOAD,2022-07-09 14:00:01,15.0884797,0.0001309,53.2137,0.5981,67.5482,287.7902,-0.0012502,-0.00020134,0.0,0 STARLINK-3791,1 52269U 22041J   22190.58334491 -.00020134  00000-0 -12502-2 0  9998,2 52269  53.2137   0.5981 0001309  67.5482 287.7902 15.08847970  1303,6917.856,95.437,540.627,538.815,0.0
52269.0,STARLINK-3791,PAYLOAD,2022-07-09 20:00:01,15.08822962,0.0001423,53.2133,359.4769,59.8565,214.1852,0.001645,0.00025977,0.0,0 STARLINK-3791,1 52269U 22041J   22190.83334491  .00025977  00000-0  16450-2 0  9990,2 52269  53.2133 359.4769 0001423  59.8565 214.1852 15.08822962 13464,6917.932,95.439,540.7819999999998,538.813,0.0
52269.0,STARLINK-3791,PAYLOAD,2022-07-10 14:00:01,15.0887793,0.0001272,53.2132,356.1086,64.8242,325.3004,-0.0047963,-0.00075895,0.0,0 STARLINK-3791,1 52269U 22041J   22191.58334491 -.00075895  00000-0 -47963-2 0  9992,2 52269  53.2132 356.1086 0001272  64.8242 325.3004 15.08877930 13581,6917.764,95.435,540.509,538.75,0.0
52269.0,STARLINK-3791,PAYLOAD,2022-07-10 22:00:00,15.08806298,0.00013,53.2129,354.6131,53.6364,348.1035,0.0030479,0.00048509,0.0,0 STARLINK-3791,1 52269U 22041J   22191.91667824  .00048509  00000-0  30479-2 0  9992,2 52269  53.2129 354.6131 0001300  53.6364 348.1035 15.08806298  1307,6917.983,95.44,540.748,538.9490000000002,0.0
52269.0,STARLINK-3791,PAYLOAD,2022-07-11 06:00:00,15.08820776,0.0001173,53.213,353.1146,61.5163,351.8105,0.0020407,0.00032322,0.0,0 STARLINK-3791,1 52269U 22041J   22192.25001157  .00032322  00000-0  20407-2 0  9997,2 52269  53.2130 353.1146 0001173  61.5163 351.8105 15.08820776 13682,6917.939,95.439,540.616,538.993,0.0
52269.0,STARLINK-3791,PAYLOAD,2022-07-11 14:00:01,15.088665900000002,0.0001302,53.2131,351.6188,61.2132,3.6879,-0.0028103,-0.00044768,0.0,0 STARLINK-3791,1 52269U 22041J   22192.58334491 -.00044768  00000-0 -28103-2 0  9993,2 52269  53.2131 351.6188 0001302  61.2132   3.6879 15.08866590  1309,6917.799,95.436,540.565,538.763,0.0
52269.0,STARLINK-3791,PAYLOAD,2022-07-11 22:00:00,15.08815781,0.000143,53.2129,350.1232,53.6552,22.8643,0.0020758,0.00032881,0.0,0 STARLINK-3791,1 52269U 22041J   22192.91667824  .00032881  00000-0  20758-2 0  9998,2 52269  53.2129 350.1232 0001430  53.6552  22.8643 15.08815781  1301,6917.954000000002,95.439,540.809,538.83,0.0
52269.0,STARLINK-3791,PAYLOAD,2022-07-12 14:00:01,15.08872619,0.0001381,53.2135,347.1289,59.0056,40.6878,-0.0040667,-0.00064487,0.0,0 STARLINK-3791,1 52269U 22041J   22193.58334491 -.00064487  00000-0 -40667-2 0  9993,2 52269  53.2135 347.1289 0001381  59.0056  40.6878 15.08872619  1301,6917.781,95.435,540.601,538.69,0.0
52269.0,STARLINK-3791,PAYLOAD,2022-07-12 22:00:00,15.08822277,0.0001424,53.2134,345.6333,49.1972,62.1135,0.0032445,0.00051702,0.0,0 STARLINK-3791,1 52269U 22041J   22193.91667824  .00051702  00000-0  32445-2 0  9998,2 52269  53.2134 345.6333 0001424  49.1972  62.1135 15.08822277 13930,6917.935,95.439,540.785,538.814,0.0
52269.0,STARLINK-3791,PAYLOAD,2022-07-13 13:24:24,15.08844867,0.0001426999999999,53.2142,342.7498,61.6237,298.4899,7.6644e-05,9.32e-06,0.0,0 STARLINK-3791,1 52269U 22041J   22194.55861689  .00000932  00000-0  76644-4 0  9994,2 52269  53.2142 342.7498 0001427  61.6237 298.4899 15.08844867 12800,6917.866,95.437,540.7180000000002,538.743,0.0
52269.0,STARLINK-3791,PAYLOAD,2022-07-13 14:00:01,15.08858646,0.0001433,53.2141,342.6393,58.027,76.471,-0.0041313,-0.00065473,0.0,0 STARLINK-3791,1 52269U 22041J   22194.58334491 -.00065473  00000-0 -41313-2 0  9999,2 52269  53.2141 342.6393 0001433  58.0270  76.4710 15.08858646 14039,6917.823,95.436,540.68,538.697,0.0
52269.0,STARLINK-3791,PAYLOAD,2022-07-13 22:00:00,15.08815167,0.0001498,53.214,341.1436,50.1363,95.9524,-0.00026165,-4.447e-05,0.0,0 STARLINK-3791,1 52269U 22041J   22194.91667824 -.00004447  00000-0 -26165-3 0  9998,2 52269  53.2140 341.1436 0001498  50.1363  95.9524 15.08815167  1303,6917.956,95.439,540.8580000000002,538.785,0.0
52269.0,STARLINK-3791,PAYLOAD,2022-07-14 06:00:00,15.08778311,0.0001357,53.2143,339.6455,59.3351,98.3237,0.0026579,0.00042194,0.0,0 STARLINK-3791,1 52269U 22041J   22195.25001157  .00042194  00000-0  26579-2 0  9994,2 52269  53.2143 339.6455 0001357  59.3351  98.3237 15.08778311 14133,6918.069,95.441,540.873,538.995,0.0
52269.0,STARLINK-3791,PAYLOAD,2022-07-14 14:00:01,15.08816737,0.0001458,53.2146,338.1502,57.7883,111.4058,-0.0010942,-0.00017649,0.0,0 STARLINK-3791,1 52269U 22041J   22195.58334491 -.00017649  00000-0 -10942-2 0  9996,2 52269  53.2146 338.1502 0001458  57.7883 111.4058 15.08816737  1305,6917.951,95.439,540.825,538.808,0.0
52269.0,STARLINK-3791,PAYLOAD,2022-07-14 22:00:00,15.08807481,0.0001520999999999,53.2143,336.6544,51.7603,128.993,0.0015732,0.00024816,0.0,0 STARLINK-3791,1 52269U 22041J   22195.91667824  .00024816  00000-0  15732-2 0  9996,2 52269  53.2143 336.6544 0001521  51.7603 128.9930 15.08807481 14230,6917.98,95.44,540.8969999999998,538.793,0.0
52269.0,STARLINK-3791,PAYLOAD,2022-07-15 14:00:01,15.08844107,0.0001438,53.2145,333.6613,56.8415,147.0577,-0.0009058,-0.00014676,0.0,0 STARLINK-3791,1 52269U 22041J   22196.58334491 -.00014676  00000-0 -90580-3 0  9991,2 52269  53.2145 333.6613 0001438  56.8415 147.0577 15.08844107  1309,6917.868,95.437,540.7280000000002,538.738,0.0
52269.0,STARLINK-3791,PAYLOAD,2022-07-15 22:00:00,15.08844209,0.0001484,53.2141,332.1653,51.9798,163.5152,0.00091283,0.00014271,0.0,0 STARLINK-3791,1 52269U 22041J   22196.91667824  .00014271  00000-0  91283-3 0  9997,2 52269  53.2141 332.1653 0001484  51.9798 163.5152 15.08844209  1309,6917.868,95.437,540.759,538.706,0.0
52269.0,STARLINK-3791,PAYLOAD,2022-07-16 06:00:00,15.08843507,0.0001353,53.214,330.6673,61.0553,166.053,0.0015523,0.00024506,0.0,0 STARLINK-3791,1 52269U 22041J   22197.25001157  .00024506  00000-0  15523-2 0  9990,2 52269  53.2140 330.6673 0001353  61.0553 166.0530 15.08843507 14435,6917.87,95.437,540.6709999999998,538.799,0.0
52269.0,STARLINK-3791,PAYLOAD,2022-07-16 14:00:01,15.08851456,0.0001520999999999,53.214,329.1723,58.1971,180.526,-0.0010037,-0.00016231,0.0,0 STARLINK-3791,1 52269U 22041J   22197.58334491 -.00016231  00000-0 -10037-2 0  9999,2 52269  53.2140 329.1723 0001521  58.1971 180.5260 15.08851456  1307,6917.845,95.437,540.763,538.658,0.0
52269.0,STARLINK-3791,PAYLOAD,2022-07-16 22:00:00,15.08871489,0.0001588,53.2135,327.676,55.4453,194.8843,-0.0013384,-0.00021544,0.0,0 STARLINK-3791,1 52269U 22041J   22197.91667824 -.00021544  00000-0 -13384-2 0  9996,2 52269  53.2135 327.6760 0001588  55.4453 194.8843 15.08871489 14535,6917.784000000002,95.436,540.748,538.5509999999998,0.0
52269.0,STARLINK-3791,PAYLOAD,2022-07-17 14:00:01,15.08862294,0.0001569,53.2133,324.6831,58.8333,214.7142,-0.0035986999999999,-0.00057142,0.0,0 STARLINK-3791,1 52269U 22041J   22198.58334491 -.00057142  00000-0 -35987-2 0  9997,2 52269  53.2133 324.6831 0001569  58.8333 214.7142 15.08862294  1301,6917.812,95.436,540.763,538.592,0.0
52269.0,STARLINK-3791,PAYLOAD,2022-07-17 22:00:00,15.08839259,0.0001546,53.2146,323.187,52.3063,232.8357,-0.0031736,-0.00050441,0.0,0 STARLINK-3791,1 52269U 22041J   22198.91667824 -.00050441  00000-0 -31736-2 0  9996,2 52269  53.2146 323.1870 0001546  52.3063 232.8357 15.08839259  1300,6917.8830000000025,95.438,540.817,538.678,0.0
52269.0,STARLINK-3791,PAYLOAD,2022-07-18 06:00:00,15.08786788,0.0001357,53.2129,321.6887,60.3823,236.3252,0.0033975,0.0005412,0.0,0 STARLINK-3791,1 52269U 22041J   22199.25001157  .00054120  00000-0  33975-2 0  9998,2 52269  53.2129 321.6887 0001357  60.3823 236.3252 15.08786788 14737,6918.043000000002,95.441,540.847,538.969,0.0
52269.0,STARLINK-3791,PAYLOAD,2022-07-18 14:00:01,15.08824305,0.0001499,53.2128,320.1939,54.8279,253.4356,-0.00047038,-7.763e-05,0.0,0 STARLINK-3791,1 52269U 22041J   22199.58334491 -.00007763  00000-0 -47038-3 0  9993,2 52269  53.2128 320.1939 0001499  54.8279 253.4356 15.08824305  1300,6917.928000000001,95.439,540.83,538.756,0.0
52269.0,STARLINK-3791,PAYLOAD,2022-07-18 22:00:00,15.08840692,0.0001492,53.2134,318.6973,50.2859,269.5458,-0.00081464,-0.0001323,0.0,0 STARLINK-3791,1 52269U 22041J   22199.91667824 -.00013230  00000-0 -81464-3 0  9996,2 52269  53.2134 318.6973 0001492  50.2859 269.5458 15.08840692 14834,6917.878000000002,95.438,540.775,538.711,0.0
52269.0,STARLINK-3791,PAYLOAD,2022-07-19 14:00:01,15.08859122,0.0001585,53.2148,315.7044,53.5439,289.4837,-0.00072016,-0.00011737,0.0,0 STARLINK-3791,1 52269U 22041J   22200.58334491 -.00011737  00000-0 -72016-3 0  9996,2 52269  53.2148 315.7044 0001585  53.5439 289.4837 15.08859122 14930,6917.821999999999,95.436,540.783,538.59,0.0
52269.0,STARLINK-3791,PAYLOAD,2022-07-19 22:00:00,15.0887208,0.0001638,53.2154,314.208,49.6676,304.9672,-0.0035351,-0.0005616,0.0,0 STARLINK-3791,1 52269U 22041J   22200.91667824 -.00056160  00000-0 -35351-2 0  9991,2 52269  53.2154 314.2080 0001638  49.6676 304.9672 15.08872080  1304,6917.781999999997,95.436,540.78,538.514,0.0
52269.0,STARLINK-3791,PAYLOAD,2022-07-20 14:00:01,15.088329000000002,0.0001885,53.2149,311.2148,57.9472,319.9192,9.8974e-05,1.287e-05,0.0,0 STARLINK-3791,1 52269U 22041J   22201.58334491  .00001287  00000-0  98974-4 0  9996,2 52269  53.2149 311.2148 0001885  57.9472 319.9192 15.08832900  1300,6917.901999999999,95.438,541.071,538.4630000000002,0.0
52269.0,STARLINK-3791,PAYLOAD,2022-07-20 22:00:01,15.08854167,0.0001814,53.2149,309.7178,56.1358,333.3681,-0.0013295,-0.00021393,0.0,0 STARLINK-3791,1 52269U 22041J   22201.91668981 -.00021393  00000-0 -13295-2 0  9990,2 52269  53.2149 309.7178 0001814  56.1358 333.3681 15.08854167 15140,6917.837,95.437,540.957,538.447,0.0
